1 32711U 08012A   20163.40319148 -.00000022  00000-0  00000-0 0  9992
2 32711  54.6092 237.7268 0141027 223.7255 135.2148  2.00564886 89716
1 32711U 08012A   20163.90176462 -.00000023  00000-0  00000+0 0  9997
2 32711  54.6090 237.7068 0141063 223.7297 135.2094  2.00564920 89706
1 32711U 08012A   20164.40033790 -.00000022  00000-0  00000-0 0  9999
2 32711  54.6089 237.6867 0141069 223.7370 135.2012  2.00564923 89734
1 32711U 08012A   20165.39748539 -.00000018  00000-0  00000-0 0  9997
2 32711  54.6087 237.6466 0141130 223.7554 135.1815  2.00564959 89739
1 32711U 08012A   20165.89606001 -.00000014  00000-0  00000-0 0  9995
2 32711  54.6086 237.6265 0141147 223.7611 135.1759  2.00564978 89768
1 32711U 08012A   20167.39178631  .00000004  00000-0  00000-0 0  9993
2 32711  54.6082 237.5664 0141243 223.7989 135.1398  2.00565031 89794
1 32711U 08012A   20168.38893958  .00000018  00000-0  00000+0 0  9993
2 32711  54.6079 237.5263 0141289 223.8182 135.1237  2.00565058 89792
1 32711U 08012A   20168.88751765  .00000025  00000-0  00000-0 0  9996
2 32711  54.6077 237.5063 0141290 223.8187 135.1255  2.00565074 89827
1 32711U 08012A   20170.38324987  .00000044  00000-0  00000-0 0  9997
2 32711  54.6073 237.4461 0141338 223.8386 135.1127  2.00565092 89859
1 32711U 08012A   20172.37755740  .00000058  00000-0  00000-0 0  9998
2 32711  54.6068 237.3659 0141449 223.8768 135.0823  2.00565105 89899
1 32711U 08012A   20173.37470859  .00000059  00000-0  00000+0 0  9994
2 32711  54.6066 237.3258 0141472 223.8868 135.0744  2.00565111 89898
1 32711U 08012A   20173.37470860  .00000059  00000-0  00000-0 0  9997
2 32711  54.6066 237.3259 0141491 223.8758 135.0855  2.00565109 89911
1 32711U 08012A   20174.87042913  .00000055  00000-0  00000-0 0  9993
2 32711  54.6062 237.2656 0141560 223.9000 135.0602  2.00565115 89945
1 32711U 08012A   20174.87042935  .00000055  00000-0  00000-0 0  9997
2 32711  54.6062 237.2656 0141544 223.8999 135.0605  2.00565111 89942
1 32711U 08012A   20176.36614323  .00000045  00000-0  00000+0 0  9997
2 32711  54.6059 237.2053 0141645 223.9464 135.0075  2.00565107 89956
1 32711U 08012A   20179.35756578  .00000032  00000-0  00000+0 0  9994
2 32711  54.6052 237.0848 0141765 223.9975 134.9415  2.00565141 90012
1 32711U 08012A   20181.35185798  .00000040  00000-0  00000-0 0  9997
2 32711  54.6048 237.0046 0141824 224.0213 134.9156  2.00565183 90074
1 32711U 08012A   20183.34615904  .00000055  00000-0  00000+0 0  9990
2 32711  54.6043 236.9244 0141914 224.0484 134.8934  2.00565267 90095
1 32711U 08012A   20184.34331012  .00000059  00000-0  00000-0 0  9991
2 32711  54.6042 236.8843 0142004 224.0936 134.8501  2.00565270 90130
1 32711U 08012A   20185.34045968  .00000059  00000-0  00000-0 0  9994
2 32711  54.6040 236.8441 0142046 224.1097 134.8359  2.00565307 90151
1 32711U 08012A   20186.33760675  .00000054  00000-0  00000+0 0  9997
2 32711  54.6038 236.8040 0142094 224.1269 134.8187  2.00565351 90155
1 32711U 08012A   20187.83332244  .00000039  00000-0  00000-0 0  9994
2 32711  54.6035 236.7439 0142139 224.1384 134.8042  2.00565445 90188
1 32711U 08012A   20189.32903302  .00000022  00000-0  00000-0 0  9991
2 32711  54.6031 236.6837 0142225 224.1732 134.7625  2.00565496 90236
1 32711U 08012A   20190.32617280  .00000014  00000-0  00000+0 0  9990
2 32711  54.6029 236.6436 0142260 224.1829 134.7482  2.00565528 90231
1 32711U 08012A   20191.32331278  .00000011  00000-0  00000-0 0  9999
2 32711  54.6026 236.6034 0142303 224.1975 134.7294  2.00565577 90259
1 32711U 08012A   20192.32045389  .00000014  00000-0  00000-0 0  9998
2 32711  54.6024 236.5633 0142354 224.2160 134.7074  2.00565624 90297
1 32711U 08012A   20192.32045447  .00000014  00000-0  00000-0 0  9993
2 32711  54.6024 236.5633 0142352 224.2099 134.7136  2.00565634 90296
1 32711U 08012A   20193.31759751  .00000021  00000-0  00000-0 0  9991
2 32711  54.6022 236.5232 0142381 224.2254 134.6964  2.00565659 90312
1 32711U 08012A   20193.81617019  .00000027  00000-0  00000-0 0  9992
2 32711  54.6021 236.5031 0142393 224.2295 134.6921  2.00565668 90308
1 32711U 08012A   20193.81617019  .00000027  00000-0  00000-0 0  9992
2 32711  54.6021 236.5031 0142393 224.2295 134.6921  2.00565668 90320
1 32711U 08012A   20194.31474320  .00000033  00000-0  00000-0 0  9991
2 32711  54.6019 236.4831 0142412 224.2349 134.6868  2.00565688 90339
1 32711U 08012A   20196.30903935  .00000060  00000-0  00000+0 0  9990
2 32711  54.6015 236.4029 0142476 224.2670 134.6583  2.00565744 90350
1 32711U 08012A   20197.30618898  .00000072  00000-0  00000-0 0  9996
2 32711  54.6013 236.3627 0142494 224.2704 134.6581  2.00565759 90397
1 32711U 08012A   20198.30333881  .00000081  00000-0  00000-0 0  9993
2 32711  54.6011 236.3226 0142542 224.2953 134.6359  2.00565740 90416
1 32711U 08012A   20199.30048692  .00000087  00000-0  00000+0 0  9992
2 32711  54.6009 236.2825 0142581 224.3085 134.6250  2.00565751 90419
1 32711U 08012A   20200.29763302  .00000089  00000-0  00000-0 0  9998
2 32711  54.6006 236.2424 0142623 224.3289 134.6053  2.00565749 90456
1 32711U 08012A   20200.79620598  .00000089  00000-0  00000-0 0  9992
2 32711  54.6006 236.2224 0142632 224.3352 134.5988  2.00565742 90465
1 32711U 08012A   20202.29191795  .00000083  00000-0  00000-0 0  9995
2 32711  54.6003 236.1622 0142670 224.3610 134.5692  2.00565743 90476
1 32711U 08012A   20203.28905568  .00000076  00000-0  00000-0 0  9998
2 32711  54.6001 236.1220 0142701 224.3730 134.5521  2.00565746 90515
1 32711U 08012A   20204.28619135  .00000069  00000-0  00000-0 0  9993
2 32711  54.5999 236.0819 0142729 224.3884 134.5301  2.00565751 90537
1 32711U 08012A   20205.28332643  .00000063  00000-0  00000-0 0  9994
2 32711  54.5997 236.0417 0142758 224.4000 134.5117  2.00565759 90535
1 32711U 08012A   20206.28046252  .00000059  00000-0  00000-0 0  9998
2 32711  54.5995 236.0016 0142800 224.4237 134.4814  2.00565759 90575
1 32711U 08012A   20209.27188608  .00000069  00000-0  00000+0 0  9992
2 32711  54.5990 235.8811 0142920 224.4707 134.4270  2.00565812 90616
1 32711U 08012A   20209.27188610  .00000069  00000-0  00000-0 0  9996
2 32711  54.5990 235.8811 0142922 224.4709 134.4268  2.00565813 90630
1 32711U 08012A   20211.76475099  .00000081  00000-0  00000+0 0  9996
2 32711  54.5984 235.7807 0142993 224.5084 134.3928  2.00565892 90664
1 32711U 08012A   20212.26332348  .00000081  00000-0  00000-0 0  9992
2 32711  54.5984 235.7606 0143017 224.5174 134.3841  2.00565913 90690
1 32711U 08012A   20213.75903710  .00000072  00000-0  00000-0 0  9994
2 32711  54.5980 235.7005 0143063 224.5428 134.3569  2.00565973 90729
1 32711U 08012A   20216.25188071  .00000042  00000-0  00000+0 0  9993
2 32711  54.5976 235.6002 0143115 224.5732 134.3155  2.00566071 90750
1 32711U 08012A   20218.24615122  .00000025  00000-0  00000-0 0  9998
2 32711  54.5972 235.5200 0143168 224.5976 134.2794  2.00566172 90810
1 32711U 08012A   20219.74185810  .00000026  00000-0  00000-0 0  9991
2 32711  54.5971 235.4600 0143192 224.6252 134.2452  2.00566226 90841
1 32711U 08012A   20221.23756770  .00000038  00000-0  00000-0 0  9990
2 32711  54.5967 235.3998 0143245 224.6358 134.2315  2.00566278 90879
1 32711U 08012A   20222.23471023  .00000050  00000-0  00000-0 0  9990
2 32711  54.5965 235.3597 0143264 224.6504 134.2168  2.00566309 90877
1 32711U 08012A   20223.23185439  .00000063  00000-0  00000-0 0  9998
2 32711  54.5963 235.3196 0143288 224.6627 134.2058  2.00566330 90919
1 32711U 08012A   20223.73042694  .00000069  00000-0  00000-0 0  9994
2 32711  54.5962 235.2995 0143299 224.6701 134.1992  2.00566343 90920
1 32711U 08012A   20225.22614506  .00000083  00000-0  00000+0 0  9992
2 32711  54.5959 235.2393 0143329 224.6888 134.1840  2.00566362 90932
1 32711U 08012A   20227.22043428  .00000091  00000-0  00000-0 0  9993
2 32711  54.5956 235.1591 0143353 224.7114 134.1642  2.00566351 90992
1 32711U 08012A   20228.21757491  .00000090  00000-0  00000+0 0  9993
2 32711  54.5953 235.1190 0143396 224.7241 134.1504  2.00566344 90991
1 32711U 08012A   20229.21471253  .00000085  00000-0  00000-0 0  9998
2 32711  54.5950 235.0788 0143420 224.7391 134.1325  2.00566346 91033
1 32711U 08012A   20229.21471266  .00000085  00000-0  00000-0 0  9992
2 32711  54.5950 235.0788 0143420 224.7373 134.1342  2.00566345 91031
1 32711U 08012A   20230.21184757  .00000078  00000-0  00000-0 0  9992
2 32711  54.5948 235.0387 0143451 224.7506 134.1160  2.00566342 91052
1 32711U 08012A   20231.20898048  .00000070  00000-0  00000+0 0  9998
2 32711  54.5946 234.9986 0143473 224.7626 134.0974  2.00566342 91052
1 32711U 08012A   20232.20611239  .00000062  00000-0  00000-0 0  9996
2 32711  54.5944 234.9585 0143488 224.7810 134.0717  2.00566340 91093
1 32711U 08012A   20232.70467847  .00000059  00000-0  00000-0 0  9991
2 32711  54.5942 234.9385 0143496 224.7906 134.0585  2.00566339 91107
1 32711U 08012A   20234.20037931  .00000054  00000-0  00000+0 0  9999
2 32711  54.5938 234.8783 0143519 224.8062 134.0343  2.00566349 91117
1 32711U 08012A   20235.19751656  .00000056  00000-0  00000-0 0  9998
2 32711  54.5936 234.8383 0143532 224.8199 134.0172  2.00566361 91133
1 32711U 08012A   20236.19465665  .00000060  00000-0  00000-0 0  9996
2 32711  54.5934 234.7982 0143550 224.8321 134.0039  2.00566385 91174
1 32711U 08012A   20237.19179963  .00000066  00000-0  00000-0 0  9996
2 32711  54.5932 234.7582 0143554 224.8489 133.9879  2.00566406 91171
1 32711U 08012A   20237.19179963  .00000066  00000-0  00000-0 0  9996
2 32711  54.5932 234.7582 0143554 224.8489 133.9879  2.00566406 91193
1 32711U 08012A   20238.18894307  .00000070  00000-0  00000-0 0  9997
2 32711  54.5929 234.7181 0143573 224.8611 133.9774  2.00566449 91216
1 32711U 08012A   20239.18608589  .00000071  00000-0  00000-0 0  9994
2 32711  54.5927 234.6780 0143599 224.8730 133.9667  2.00566472 91215
